{"type": "FeatureCollection", "features": [ {"type": "Feature", "properties": {"norad_id": 66539, "name": "STARLINK-35697", "group": "last-30-days", "lat": 39.777280046345375, "lon": 172.78898797290282, "alt_km": 339.16372388124364, "timestamp": "2025-12-03T08:58:44.778104+00:00", "meta": {"OBJECT_NAME": "STARLINK-35697", "OBJECT_ID": "2025-265Z", "EPOCH": "2025-12-03T04:00:01.998720", "MEAN_MOTION": 15.75060679, "ECCENTRICITY": 0.0001661, "INCLINATION": 43.0002, "RA_OF_ASC_NODE": 110.7455, "ARG_OF_PERICENTER": 263.3893, "MEAN_ANOMALY": 68.7642, "EPHEMERIS_TYPE": 0, "CLASSIFICATION_TYPE": "U", "NORAD_CAT_ID": 66539, "ELEMENT_SET_NO": 999, "REV_AT_EPOCH": 345, "BSTAR": 0.0001166, "MEAN_MOTION_DOT": 0.00017487, "MEAN_MOTION_DDOT": 0}, "tle": {"line1": "1 66539U 25265Z   25337.16668980  .00017487  00000+0  11660-3 0  9996", "line2": "2 66539  43.0002 110.7455 0001661 263.3893  68.7642 15.75060679  3452"}}, "geometry": {"type": "Point", "coordinates": [172.78898797290282, 39.777280046345375]}}, {"type": "Feature", "properties": {"norad_id": 66540, "name": "STARLINK-35818", "group": "last-30-days", "lat": 40.340334149884114, "lon": 175.18172820495604, "alt_km": 339.2193659021041, "timestamp": "2025-12-03T08:58:44.778114+00:00", "meta": {"OBJECT_NAME": "STARLINK-35818", "OBJECT_ID": "2025-265AA", "EPOCH": "2025-12-03T04:00:01.998720", "MEAN_MOTION": 15.75058205, "ECCENTRICITY": 0.0001814, "INCLINATION": 43, "RA_OF_ASC_NODE": 110.7412, "ARG_OF_PERICENTER": 254.2669, "MEAN_ANOMALY": 79.8082, "EPHEMERIS_TYPE": 0, "CLASSIFICATION_TYPE": "U", "NORAD_CAT_ID": 66540, "ELEMENT_SET_NO": 999, "REV_AT_EPOCH": 345, "BSTAR": 0.00012437, "MEAN_MOTION_DOT": 0.00018685, "MEAN_MOTION_DDOT": 0}, "tle": {"line1": "1 66540U 25265AA  25337.16668980  .00018685  00000+0  12437-3 0  9992", "line2": "2 66540  43.0000 110.7412 0001814 254.2669  79.8082 15.75058205  3458"}}, "geometry": {"type": "Point", "coordinates": [175.18172820495604, 40.340334149884114]}}, {"type": "Feature", "properties": {"norad_id": 66541, "name": "STARLINK-35796", "group": "last-30-days", "lat": 40.851895187125244, "lon": 177.604336893225, "alt_km": 339.1411635409777, "timestamp": "2025-12-03T08:58:44.778127+00:00", "meta": {"OBJECT_NAME": "STARLINK-35796", "OBJECT_ID": "2025-265AB", "EPOCH": "2025-12-03T04:00:01.998720", "MEAN_MOTION": 15.75059385, "ECCENTRICITY": 0.0001826, "INCLINATION": 43.0002, "RA_OF_ASC_NODE": 110.7363, "ARG_OF_PERICENTER": 249.8354, "MEAN_ANOMALY": 86.1507, "EPHEMERIS_TYPE": 0, "CLASSIFICATION_TYPE": "U", "NORAD_CAT_ID": 66541, "ELEMENT_SET_NO": 999, "REV_AT_EPOCH": 345, "BSTAR": 0.00015311, "MEAN_MOTION_DOT": 0.00023127, "MEAN_MOTION_DDOT": 0}, "tle": {"line1": "1 66541U 25265AB  25337.16668980  .00023127  00000+0  15311-3 0  9994", "line2": "2 66541  43.0002 110.7363 0001826 249.8354  86.1507 15.75059385  3453"}}, "geometry": {"type": "Point", "coordinates": [177.604336893225, 40.851895187125244]}}, {"type": "Feature", "properties": {"norad_id": 66542, "name": "STARLINK-35833", "group": "last-30-days", "lat": 41.31470706239981, "lon": -179.9184679477782, "alt_km": 339.0464829077828, "timestamp": "2025-12-03T08:58:44.778139+00:00", "meta": {"OBJECT_NAME": "STARLINK-35833", "OBJECT_ID": "2025-265AC", "EPOCH": "2025-12-03T04:00:01.998720", "MEAN_MOTION": 15.75024607, "ECCENTRICITY": 0.0001743, "INCLINATION": 43.0001, "RA_OF_ASC_NODE": 110.7318, "ARG_OF_PERICENTER": 263.5259, "MEAN_ANOMALY": 74.3997, "EPHEMERIS_TYPE": 0, "CLASSIFICATION_TYPE": "U", "NORAD_CAT_ID": 66542, "ELEMENT_SET_NO": 999, "REV_AT_EPOCH": 345, "BSTAR": 0.00043498, "MEAN_MOTION_DOT": 0.00066828, "MEAN_MOTION_DDOT": 0}, "tle": {"line1": "1 66542U 25265AC  25337.16668980  .00066828  00000+0  43498-3 0  9997", "line2": "2 66542  43.0001 110.7318 0001743 263.5259  74.3997 15.75024607  3459"}}, "geometry": {"type": "Point", "coordinates": [-179.9184679477782, 41.31470706239981]}}, {"type": "Feature", "properties": {"norad_id": 66543, "name": "STARLINK-35315", "group": "last-30-days", "lat": 41.72230176909875, "lon": -177.4173920382927, "alt_km": 338.81456285485, "timestamp": "2025-12-03T08:58:44.778149+00:00", "meta": {"OBJECT_NAME": "STARLINK-35315", "OBJECT_ID": "2025-265AD", "EPOCH": "2025-12-03T04:00:01.998720", "MEAN_MOTION": 15.7507435, "ECCENTRICITY": 0.0001509, "INCLINATION": 43.0001, "RA_OF_ASC_NODE": 110.7264, "ARG_OF_PERICENTER": 265.2125, "MEAN_ANOMALY": 74.6106, "EPHEMERIS_TYPE": 0, "CLASSIFICATION_TYPE": "U", "NORAD_CAT_ID": 66543, "ELEMENT_SET_NO": 999, "REV_AT_EPOCH": 334, "BSTAR": -0.00026001, "MEAN_MOTION_DOT": -0.00040289, "MEAN_MOTION_DDOT": 0}, "tle": {"line1": "1 66543U 25265AD  25337.16668980 -.00040289  00000+0 -26001-3 0  9994", "line2": "2 66543  43.0001 110.7264 0001509 265.2125  74.6106 15.75074350  3344"}}, "geometry": {"type": "Point", "coordinates": [-177.4173920382927, 41.72230176909875]}}, {"type": "Feature", "properties": {"norad_id": 66544, "name": "STARLINK-35728", "group": "last-30-days", "lat": 42.074216051386195, "lon": -174.88917578756832, "alt_km": 338.9260874563124, "timestamp": "2025-12-03T08:58:44.778159+00:00", "meta": {"OBJECT_NAME": "STARLINK-35728", "OBJECT_ID": "2025-265AE", "EPOCH": "2025-12-03T04:00:01.998720", "MEAN_MOTION": 15.75057829, "ECCENTRICITY": 0.0001766, "INCLINATION": 43, "RA_OF_ASC_NODE": 110.7218, "ARG_OF_PERICENTER": 262.5084, "MEAN_ANOMALY": 79.2351, "EPHEMERIS_TYPE": 0, "CLASSIFICATION_TYPE": "U", "NORAD_CAT_ID": 66544, "ELEMENT_SET_NO": 999, "REV_AT_EPOCH": 345, "BSTAR": 8.5855e-05, "MEAN_MOTION_DOT": 0.00012741, "MEAN_MOTION_DDOT": 0}, "tle": {"line1": "1 66544U 25265AE  25337.16668980  .00012741  00000+0  85855-4 0  9998", "line2": "2 66544  43.0000 110.7218 0001766 262.5084  79.2351 15.75057829  3459"}}, "geometry": {"type": "Point", "coordinates": [-174.88917578756832, 42.074216051386195]}}, {"type": "Feature", "properties": {"norad_id": 66545, "name": "SHIJIAN-30A", "group": "last-30-days", "lat": -49.97770072707633, "lon": -93.59169598690931, "alt_km": 520.9731011676758, "timestamp": "2025-12-03T08:58:44.778170+00:00", "meta": {"OBJECT_NAME": "SHIJIAN-30A", "OBJECT_ID": "2025-266A", "EPOCH": "2025-12-03T03:05:59.489664", "MEAN_MOTION": 15.1532722, "ECCENTRICITY": 0.0012774, "INCLINATION": 51.7996, "RA_OF_ASC_NODE": 17.8804, "ARG_OF_PERICENTER": 322.212, "MEAN_ANOMALY": 37.7958, "EPHEMERIS_TYPE": 0, "CLASSIFICATION_TYPE": "U", "NORAD_CAT_ID": 66545, "ELEMENT_SET_NO": 999, "REV_AT_EPOCH": 212, "BSTAR": 0.00082878, "MEAN_MOTION_DOT": 0.00015569, "MEAN_MOTION_DDOT": 0}, "tle": {"line1": "1 66545U 25266A   25337.12916076  .00015569  00000+0  82878-3 0  9990", "line2": "2 66545  51.7996  17.8804 0012774 322.2120  37.7958 15.15327220  2128"}}, "geometry": {"type": "Point", "coordinates": [-93.59169598690931, -49.97770072707633]}}, {"type": "Feature", "properties": {"norad_id": 66546, "name": "SHIJIAN-30B", "group": "last-30-days", "lat": -48.24634348560379, "lon": -101.34454351732296, "alt_km": 522.3765242552072, "timestamp": "2025-12-03T08:58:44.778181+00:00", "meta": {"OBJECT_NAME": "SHIJIAN-30B", "OBJECT_ID": "2025-266B", "EPOCH": "2025-12-03T03:07:26.038272", "MEAN_MOTION": 15.15387893, "ECCENTRICITY": 0.0010448, "INCLINATION": 51.7979, "RA_OF_ASC_NODE": 17.8851, "ARG_OF_PERICENTER": 325.2051, "MEAN_ANOMALY": 34.8241, "EPHEMERIS_TYPE": 0, "CLASSIFICATION_TYPE": "U", "NORAD_CAT_ID": 66546, "ELEMENT_SET_NO": 999, "REV_AT_EPOCH": 212, "BSTAR": 0.00094958, "MEAN_MOTION_DOT": 0.0001791, "MEAN_MOTION_DDOT": 0}, "tle": {"line1": "1 66546U 25266B   25337.13016248  .00017910  00000+0  94958-3 0  9998", "line2": "2 66546  51.7979  17.8851 0010448 325.2051  34.8241 15.15387893  2129"}}, "geometry": {"type": "Point", "coordinates": [-101.34454351732296, -48.24634348560379]}}, {"type": "Feature", "properties": {"norad_id": 66547, "name": "SHIJIAN-30C", "group": "last-30-days", "lat": -46.57767543572862, "lon": -106.93327487437112, "alt_km": 521.5674875922159, "timestamp": "2025-12-03T08:58:44.778193+00:00", "meta": {"OBJECT_NAME": "SHIJIAN-30C", "OBJECT_ID": "2025-266C", "EPOCH": "2025-12-03T03:08:31.742016", "MEAN_MOTION": 15.15426154, "ECCENTRICITY": 0.0011339, "INCLINATION": 51.799, "RA_OF_ASC_NODE": 17.8907, "ARG_OF_PERICENTER": 317.4145, "MEAN_ANOMALY": 42.5951, "EPHEMERIS_TYPE": 0, "CLASSIFICATION_TYPE": "U", "NORAD_CAT_ID": 66547, "ELEMENT_SET_NO": 999, "REV_AT_EPOCH": 212, "BSTAR": 0.00083734, "MEAN_MOTION_DOT": 0.00015772, "MEAN_MOTION_DDOT": 0}, "tle": {"line1": "1 66547U 25266C   25337.13092294  .00015772  00000+0  83734-3 0  9998", "line2": "2 66547  51.7990  17.8907 0011339 317.4145  42.5951 15.15426154  2120"}}, "geometry": {"type": "Point", "coordinates": [-106.93327487437112, -46.57767543572862]}}, {"type": "Feature", "properties": {"norad_id": 66548, "name": "CZ-2C R/B", "group": "last-30-days", "lat": -51.49705807321191, "lon": -85.3412049991968, "alt_km": 511.19579271110706, "timestamp": "2025-12-03T08:58:44.778208+00:00", "meta": {"OBJECT_NAME": "CZ-2C R/B", "OBJECT_ID": "2025-266D", "EPOCH": "2025-12-03T03:08:13.108128", "MEAN_MOTION": 15.29842815, "ECCENTRICITY": 0.008478, "INCLINATION": 52.0551, "RA_OF_ASC_NODE": 17.049, "ARG_OF_PERICENTER": 140.375, "MEAN_ANOMALY": 220.3473, "EPHEMERIS_TYPE": 0, "CLASSIFICATION_TYPE": "U", "NORAD_CAT_ID": 66548, "ELEMENT_SET_NO": 999, "REV_AT_EPOCH": 214, "BSTAR": 0.00050518, "MEAN_MOTION_DOT": 0.00016162, "MEAN_MOTION_DDOT": 0}, "tle": {"line1": "1 66548U 25266D   25337.13070727  .00016162  00000+0  50518-3 0  9994", "line2": "2 66548  52.0551  17.0490 0084780 140.3750 220.3473 15.29842815  2140"}}, "geometry": {"type": "Point", "coordinates": [-85.3412049991968, -51.49705807321191]}}]}